NORAD_CAT_ID,OBJECT_NAME,OBJECT_TYPE,EPOCH,MEAN_MOTION,ECCENTRICITY,INCLINATION,RA_OF_ASC_NODE,ARG_OF_PERICENTER,MEAN_ANOMALY,BSTAR,MEAN_MOTION_DOT,MEAN_MOTION_DDOT,TLE_LINE0,TLE_LINE1,TLE_LINE2,SEMIMAJOR_AXIS,PERIOD,APOGEE,PERIGEE,DECAYED
53249.0,STARLINK-4128,PAYLOAD,2024-05-19 13:20:07,15.08815086,0.0001233,53.2132,273.0988,68.2924,291.8199,0.00081675,0.00012726,0.0,0 STARLINK-4128,1 53249U 22086H   24140.55563827  .00012726  00000-0  81675-3 0  9991,2 53249  53.2132 273.0988 0001233  68.2924 291.8199 15.08815086101573,6917.957,95.439,540.675,538.969,0.0
53249.0,STARLINK-4128,PAYLOAD,2024-05-19 16:30:53,15.08823895,0.0001239,53.2155,272.5046,63.2166,296.8953,0.0025253,0.00040113,0.0,0 STARLINK-4128,1 53249U 22086H   24140.68812182  .00040113  00000-0  25253-2 0  9996,2 53249  53.2155 272.5046 0001239  63.2166 296.8953 15.08823895101396,6917.93,95.439,540.652,538.937,0.0
53249.0,STARLINK-4128,PAYLOAD,2024-05-20 13:10:54,15.08861307,0.0001553,53.2158,268.6404,59.3015,300.813,0.0017604,0.00027856,0.0,0 STARLINK-4128,1 53249U 22086H   24141.54924445  .00027856  00000-0  17604-2 0  9998,2 53249  53.2158 268.6404 0001553  59.3015 300.8130 15.08861307101529,6917.815,95.436,540.755,538.606,0.0
53249.0,STARLINK-4128,PAYLOAD,2024-05-20 14:46:17,15.08864994,0.0001566,53.2158,268.3433,60.9283,299.1865,0.0018067,0.00028602,0.0,0 STARLINK-4128,1 53249U 22086H   24141.61548341  .00028602  00000-0  18067-2 0  9997,2 53249  53.2158 268.3433 0001566  60.9283 299.1865 15.08864994101730,6917.804,95.436,540.752,538.586,0.0
53249.0,STARLINK-4128,PAYLOAD,2024-05-21 13:01:41,15.0886057,0.0001185,53.2165,264.1809,110.7703,249.3416,0.0014346,0.0002263,0.0,0 STARLINK-4128,1 53249U 22086H   24142.54283934  .00022630  00000-0  14346-2 0  9995,2 53249  53.2165 264.1809 0001185 110.7703 249.3416 15.08860570101675,6917.818,95.436,540.502,538.863,0.0
53249.0,STARLINK-4128,PAYLOAD,2024-05-21 14:37:04,15.0885491,0.0001159,53.2166,263.8858,90.1098,270.0027,0.00097516,0.00015272,0.0,0 STARLINK-4128,1 53249U 22086H   24142.60907999  .00015272  00000-0  97516-3 0  9991,2 53249  53.2166 263.8858 0001159  90.1098 270.0027 15.08854910101888,6917.835,95.437,540.502,538.898,0.0
53249.0,STARLINK-4128,PAYLOAD,2024-05-22 11:17:05,15.08842354,0.0001143,53.2164,260.0162,77.0211,283.0909,0.0009491,0.0001485,0.0,0 STARLINK-4128,1 53249U 22086H   24143.47020319  .00014850  00000-0  94910-3 0  9995,2 53249  53.2164 260.0162 0001143  77.0211 283.0909 15.08842354101812,6917.873,95.437,540.529,538.947,0.0
53249.0,STARLINK-4128,PAYLOAD,2024-05-23 12:43:15,15.08845451,0.0001335,53.2158,255.2558,69.8197,290.2938,0.00038159,5.791e-05,0.0,0 STARLINK-4128,1 53249U 22086H   24144.53004377  .00005791  00000-0  38159-3 0  9996,2 53249  53.2158 255.2558 0001335  69.8197 290.2938 15.08845451101975,6917.864,95.437,540.652,538.805,0.0
53249.0,STARLINK-4128,PAYLOAD,2024-05-23 14:18:38,15.08848099,0.0001456,53.2168,254.959,95.1357,264.9801,0.00039785,6.051e-05,0.0,0 STARLINK-4128,1 53249U 22086H   24144.59628194  .00006051  00000-0  39785-3 0  9997,2 53249  53.2168 254.9590 0001456  95.1357 264.9801 15.08848099102184,6917.856,95.437,540.728,538.713,0.0
53249.0,STARLINK-4128,PAYLOAD,2024-05-24 12:34:02,15.08859493,0.0001444,53.2168,250.7987,98.6966,261.419,0.00046663,7.15e-05,0.0,0 STARLINK-4128,1 53249U 22086H   24145.52363516  .00007150  00000-0  46663-3 0  9999,2 53249  53.2168 250.7987 0001444  98.6966 261.4190 15.08859493102328,6917.821,95.436,540.685,538.687,0.0
53249.0,STARLINK-4128,PAYLOAD,2024-05-24 15:44:48,15.08869807,0.0001533,53.2179,250.2041,105.9712,254.145,0.00074039,0.00011524,0.0,0 STARLINK-4128,1 53249U 22086H   24145.65611114  .00011524  00000-0  74039-3 0  9991,2 53249  53.2179 250.2041 0001533 105.9712 254.1450 15.08869807102144,6917.789,95.436,540.715,538.594,0.0
53249.0,STARLINK-4128,PAYLOAD,2024-05-24 23:41:43,15.08835271,0.0001053,53.2161,248.7178,104.6834,255.4274,-0.00059148,-9.687e-05,0.0,0 STARLINK-4128,1 53249U 22086H   24145.98731331 -.00009687  00000-0 -59148-3 0  9994,2 53249  53.2161 248.7178 0001053 104.6834 255.4274 15.08835271102197,6917.895,95.438,540.488,539.031,0.0
53249.0,STARLINK-4128,PAYLOAD,2024-05-25 14:00:13,15.08822009,0.00015,53.2163,246.0424,85.0483,275.068,-0.00031893,-5.358e-05,0.0,0 STARLINK-4128,1 53249U 22086H   24146.58348388 -.00005358  00000-0 -31893-3 0  9995,2 53249  53.2163 246.0424 0001500  85.0483 275.0680 15.08822009102489,6917.935,95.439,540.838,538.763,0.0
53249.0,STARLINK-4128,PAYLOAD,2024-05-26 12:15:37,15.08838908,0.0001118,53.2151,241.8781,73.0044,287.1071,0.00065228,0.00010108,0.0,0 STARLINK-4128,1 53249U 22086H   24147.51084922  .00010108  00000-0  65228-3 0  9996,2 53249  53.2151 241.8781 0001118  73.0044 287.1071 15.08838908102427,6917.884,95.438,540.522,538.975,0.0
53249.0,STARLINK-4128,PAYLOAD,2024-05-26 13:51:00,15.08838979,0.0001238,53.2152,241.5809,79.7797,280.3335,0.00065165,0.00010098,0.0,0 STARLINK-4128,1 53249U 22086H   24147.57709002  .00010098  00000-0  65165-3 0  9993,2 53249  53.2152 241.5809 0001238  79.7797 280.3335 15.08838979102636,6917.884,95.438,540.605,538.892,0.0
53249.0,STARLINK-4128,PAYLOAD,2024-05-26 15:26:23,15.08844717,0.0001302,53.2158,241.2821,101.577,258.5369,0.00066562,0.00010323,0.0,0 STARLINK-4128,1 53249U 22086H   24147.64332751  .00010323  00000-0  66562-3 0  9997,2 53249  53.2158 241.2821 0001302 101.5770 258.5369 15.08844717102642,6917.866,95.437,540.632,538.83,0.0
53249.0,STARLINK-4128,PAYLOAD,2024-05-26 23:23:15,15.08879589,0.0007738,53.2153,239.7927,258.0984,101.9141,0.0010826,0.00017011,0.0,0 STARLINK-4128,1 53249U 22086H   24147.97448533  .00017011  00000-0  10826-2 0  9991,2 53249  53.2153 239.7927 0007738 258.0984 101.9141 15.08879589102497,6917.759,95.435,544.977,534.271,0.0
53249.0,STARLINK-4128,PAYLOAD,2024-05-27 14:00:01,15.08879773,0.0001238,53.2148,237.065,80.1828,348.7524,-0.0052447,-0.00082887,0.0,0 STARLINK-4128,1 53249U 22086H   24148.58334491 -.00082887  00000-0 -52447-2 0  9996,2 53249  53.2148 237.0650 0001238  80.1828 348.7524 15.08879773102586,6917.759,95.435,540.48,538.767,0.0
53249.0,STARLINK-4128,PAYLOAD,2024-05-27 16:00:00,15.08835295,0.0001177,53.2149,236.691,79.0243,82.8283,-0.00066603,-0.00010871,0.0,0 STARLINK-4128,1 53249U 22086H   24148.66667824 -.00010871  00000-0 -66603-3 0  9998,2 53249  53.2149 236.6910 0001177  79.0243  82.8283 15.08835295  5818,6917.895,95.438,540.574,538.946,0.0
53249.0,STARLINK-4128,PAYLOAD,2024-05-27 23:14:05,15.08862257,0.0001533,53.2143,235.3376,63.9617,296.1533,0.00056767,8.763e-05,0.0,0 STARLINK-4128,1 53249U 22086H   24148.96812053  .00008763  00000-0  56767-3 0  9992,2 53249  53.2143 235.3376 0001533  63.9617 296.1533 15.08862257102642,6917.812,95.436,540.738,538.617,0.0
53249.0,STARLINK-4128,PAYLOAD,2024-05-28 11:57:10,15.08848136,0.0001554,53.2148,232.9588,65.0255,295.0898,0.00012449,1.694e-05,0.0,0 STARLINK-4128,1 53249U 22086H   24149.49804321  .00001694  00000-0  12449-3 0  9995,2 53249  53.2148 232.9588 0001554  65.0255 295.0898 15.08848136102720,6917.856,95.437,540.796,538.645,0.0
53249.0,STARLINK-4128,PAYLOAD,2024-05-29 05:26:25,15.08839264,0.0001692,53.2163,229.6899,55.2148,304.9003,-2.9418e-06,-3.35e-06,0.0,0 STARLINK-4128,1 53249U 22086H   24150.22668669 -.00000335  00000-0 -29418-5 0  9990,2 53249  53.2163 229.6899 0001692  55.2148 304.9003 15.08839264102832,6917.883,95.438,540.918,538.577,0.0
53249.0,STARLINK-4128,PAYLOAD,2024-05-29 11:47:58,15.08839627,0.0001402,53.216,228.4981,66.3997,293.7143,-6.5852e-05,-1.336e-05,0.0,0 STARLINK-4128,1 53249U 22086H   24150.49164681 -.00001336  00000-0 -65852-4 0  9997,2 53249  53.2160 228.4981 0001402  66.3997 293.7143 15.08839627103072,6917.882,95.438,540.716,538.777,0.0
53249.0,STARLINK-4128,PAYLOAD,2024-05-30 11:38:44,15.0884951,0.0001371,53.2173,224.0379,90.7289,269.386,0.00015645,2.203e-05,0.0,0 STARLINK-4128,1 53249U 22086H   24151.48523855  .00002203  00000-0  15645-3 0  9995,2 53249  53.2173 224.0379 0001371  90.7289 269.3860 15.08849510103021,6917.851,95.437,540.665,538.768,0.0
53249.0,STARLINK-4128,PAYLOAD,2024-05-31 05:07:59,15.08838559,0.0001552,53.2179,220.7679,96.6952,263.4217,0.00013762,1.903e-05,0.0,0 STARLINK-4128,1 53249U 22086H   24152.21388551  .00001903  00000-0  13762-3 0  9993,2 53249  53.2179 220.7679 0001552  96.6952 263.4217 15.08838559103130,6917.885,95.438,540.823,538.676,0.0
53249.0,STARLINK-4128,PAYLOAD,2024-05-31 09:54:09,15.08839428,0.0001613,53.2179,219.8746,107.8253,252.2915,0.00011586,1.556e-05,0.0,0 STARLINK-4128,1 53249U 22086H   24152.41260463  .00001556  00000-0  11586-3 0  9992,2 53249  53.2179 219.8746 0001613 107.8253 252.2915 15.08839428103363,6917.882,95.438,540.863,538.631,0.0
53249.0,STARLINK-4128,PAYLOAD,2024-05-31 11:29:31,15.08843996,0.0001274,53.2167,219.5741,87.3048,272.809,0.00013281,1.827e-05,0.0,0 STARLINK-4128,1 53249U 22086H   24152.47884184  .00001827  00000-0  13281-3 0  9995,2 53249  53.2167 219.5741 0001274  87.3048 272.8090 15.08843996103377,6917.868,95.437,540.615,538.852,0.0
53249.0,STARLINK-4128,PAYLOAD,2024-06-01 04:58:47,15.08835923,0.000134,53.2167,216.3057,93.1504,266.9641,-2.9387e-05,-7.56e-06,0.0,0 STARLINK-4128,1 53249U 22086H   24153.20749237 -.00000756  00000-0 -29387-4 0  9993,2 53249  53.2167 216.3057 0001340  93.1504 266.9641 15.08835923103285,6917.893,95.438,540.685,538.831,0.0
53249.0,STARLINK-4128,PAYLOAD,2024-06-01 11:20:20,15.08830975,0.0001273,53.2168,215.1167,89.4162,270.6976,-6.1611e-05,-1.268e-05,0.0,0 STARLINK-4128,1 53249U 22086H   24153.47245689 -.00001268  00000-0 -61611-4 0  9999,2 53249  53.2168 215.1167 0001273  89.4162 270.6976 15.08830975103520,6917.908,95.438,540.654,538.892,0.0
53249.0,STARLINK-4128,PAYLOAD,2024-06-02 11:11:06,15.08843107,0.0001343,53.2163,210.6545,86.6379,273.4767,9.7206e-05,1.26e-05,0.0,0 STARLINK-4128,1 53249U 22086H   24154.46604802  .00001260  00000-0  97206-4 0  9994,2 53249  53.2163 210.6545 0001343  86.6379 273.4767 15.08843107103476,6917.871,95.437,540.665,538.807,0.0
